TDRS 3                  
1 19548U 88091B   26191.29697285 -.00000295  00000+0  00000+0 0  9995
2 19548  12.5846 340.8442 0036952 355.5827   9.6398  1.00264401125629
FLTSATCOM 8 (USA 46)    
1 20253U 89077A   26191.30666499 -.00000364  00000+0  00000+0 0  9997
2 20253  12.4149 351.0228 0003556  68.1106 105.1034  1.00265532260799
SKYNET 4C               
1 20776U 90079A   26191.19052806 -.00000024  00000+0  00000+0 0  9992
2 20776  13.3310 349.6652 0002967 136.8117  91.8131  0.98576684   265
TDRS 5                  
1 21639U 91054B   26191.17710772  .00000086  00000+0  00000+0 0  9993
2 21639  14.0682 353.6039 0007336 257.0433 293.5145  1.00271536127943
TDRS 6                  
1 22314U 93003B   26191.26612682 -.00000294  00000+0  00000+0 0  9993
2 22314  14.1831 356.8854 0008038 183.3712 157.5749  1.00281559122638
UFO 2 (USA 95)          
1 22787U 93056A   26191.11364339  .00000127  00000+0  00000+0 0  9996
2 22787  11.9051   3.4273 0002878   8.7218 345.4737  1.00267981118776
USA 99 (MILSTAR-1 1)    
1 22988U 94009A   26191.17224698  .00000014  00000+0  00000+0 0  9992
2 22988  17.6595  27.4649 0001652 193.2484   6.0953  0.98720187 33170
UFO 4 (USA 108)         
1 23467U 95003A   26191.24459034 -.00000018  00000+0  00000+0 0  9997
2 23467   9.6723  13.0296 0003134  93.0573  82.4385  1.00275434115182
TDRS 7                  
1 23613U 95035B   26190.94293793 -.00000237  00000+0  00000+0 0  9992
2 23613  13.3676 348.0318 0011648  84.9429 283.5707  1.00275282113482
USA 115 (MILSTAR-1 2)   
1 23712U 95060A   26191.32187244 -.00000202  00000+0  00000+0 0  9998
2 23712  14.0809   3.5690 0006218 123.8854 186.6379  1.00273310 33115
INMARSAT 3-F1           
1 23839U 96020A   26191.21313529  .00000030  00000+0  00000+0 0  9998
2 23839  10.6475  46.4199 0004297  82.2805 116.6431  0.99979279110487
INMARSAT 3-F2           
1 24307U 96053A   26190.95047796 -.00000355  00000+0  00000+0 0  9996
2 24307   9.9068  53.7023 0006431  49.6793 293.6877  0.99994339109144
INMARSAT 3-F3           
1 24674U 96070A   26191.28543156  .00000069  00000+0  00000+0 0  9991
2 24674  10.3668  49.4293 0003485  69.3661 291.0503  0.99993324108132
USA 134                 
1 25019U 97065A   26191.29920712 -.00000062  00000+0  00000+0 0  9992
2 25019  12.8104  21.5432 0002346 334.4205 287.5366  1.00272494 33189
INMARSAT 3-F5           
1 25153U 98006B   26191.05390940 -.00000288  00000+0  00000+0 0  9995
2 25153   9.7415  53.0266 0004374  58.4637 141.8929  1.00275149104128
ABS-6                   
1 25924U 99053A   26191.21919785 -.00000109  00000+0  00000+0 0  9998
2 25924   0.0547 269.1862 0003170 177.0668  79.7982  1.00269332 98072
UFO 10 (USA 146)        
1 25967U 99063A   26190.84947216 -.00000184  00000+0  00000+0 0  9997
2 25967   9.8565  27.0898 0001372 101.5818  81.9523  1.00273499 97576
ASIASTAR                
1 26107U 00016A   26191.01742044 -.00000331  00000+0  00000+0 0  9990
2 26107   9.1799  57.9050 0003715  62.4532 278.8606  1.00273751 96140
USA 149 (DSP 20)        
1 26356U 00024A   26191.18313690  .00000097  00000+0  00000+0 0  9992
2 26356  13.1871  11.6826 0001565 306.1999 231.3784  1.00280183 33145
TDRS 8                  
1 26388U 00034A   26191.08462605 -.00000196  00000+0  00000+0 0  9999
2 26388  12.7188  31.1249 0004279  32.6988 339.4917  1.00273334 95412
NSS-11                  
1 26554U 00059A   26191.24528367  .00000034  00000+0  00000+0 0  9997
2 26554   2.1831  81.1153 0002784  35.9460  75.4181  1.00272514 41526
USA 153                 
1 26575U 00065A   26190.95186464 -.00000323  00000+0  00000+0 0  9994
2 26575  11.6623  35.2273 0002111  57.4052 312.3516  1.00274116 33162
AMC-6                   
1 26580U 00067A   26191.24767128  .00000099  00000+0  00000+0 0  9996
2 26580   0.2080  83.5815 0003829  39.0030 119.7061  1.00270900 94120
USA 157 (MILSTAR-2 2)   
1 26715U 01009A   26191.22530478  .00000111  00000+0  00000+0 0  9992
2 26715  11.5670  19.6141 0040549 179.0803  20.4635  1.00272109 33171
INTELSAT 902 (IS-902)   
1 26900U 01039A   26191.30593167 -.00000279  00000+0  00000+0 0  9990
2 26900   6.1736  71.5000 0004430  34.5835 242.1751  1.00271554 90921
USA 164 (MILSTAR-2 3)   
1 27168U 02001A   26191.21417020  .00000100  00000+0  00000+0 0  9992
2 27168  11.2059  21.7598 0098512   8.9392 353.5139  1.00275316 33192
INTELSAT 904 (IS-904)   
1 27380U 02007A   26191.08517065 -.00000221  00000+0  00000+0 0  9994
2 27380   6.9741  68.9058 0005469  22.5700 195.7302  1.00272023 51993
DIRECTV 5 (TEMPO 1)     
1 27426U 02023A   26191.30802150 -.00000051  00000+0  00000+0 0  9991
2 27426   4.9338  75.0208 0003043  39.1246 174.8663  1.00271025 88354
INTELSAT 905 (IS-905)   
1 27438U 02027A   26190.75554020  .00000100  00000+0  00000+0 0  9990
2 27438   6.8070  69.5248 0003614  44.7572 308.2054  1.00272621 51586
GALAXY 3C (G-3C)        
1 27445U 02030A   26191.26298478 -.00000146  00000+0  00000+0 0  9992
2 27445   3.7900  77.6765 0001540  38.2606 172.1000  1.00270979 46721
INTELSAT 906 (IS-906)   
1 27513U 02041A   26191.19955841  .00000018  00000+0  00000+0 0  9993
2 27513   5.8592  72.6383 0003959  18.7055 332.7527  1.00272124 87250
