OBJECT_NAME,OBJECT_ID,EPOCH,MEAN_MOTION,ECCENTRICITY,INCLINATION,RA_OF_ASC_NODE,ARG_OF_PERICENTER,MEAN_ANOMALY,EPHEMERIS_TYPE,CLASSIFICATION_TYPE,NORAD_CAT_ID,ELEMENT_SET_NO,REV_AT_EPOCH,BSTAR,MEAN_MOTION_DOT,MEAN_MOTION_DDOT
TDRS 3,1988-091B,2026-07-10T07:07:38.454240,1.00264401,.00369529,12.5846,340.8442,355.5827,9.6398,0,U,19548,999,12562,0,-.295E-5,0
FLTSATCOM 8 (USA 46),1989-077A,2026-07-10T07:21:35.855136,1.00265532,.00035561,12.4149,351.0228,68.1106,105.1034,0,U,20253,999,26079,0,-.364E-5,0
SKYNET 4C,1990-079A,2026-07-10T04:34:21.624384,0.98576684,.00029674,13.3310,349.6652,136.8117,91.8131,0,U,20776,999,26,0,-.24E-6,0
TDRS 5,1991-054B,2026-07-10T04:15:02.107008,1.00271536,.00073364,14.0682,353.6039,257.0433,293.5145,0,U,21639,999,12794,0,.86E-6,0
TDRS 6,1993-003B,2026-07-10T06:23:13.357248,1.00281559,.00080381,14.1831,356.8854,183.3712,157.5749,0,U,22314,999,12263,0,-.294E-5,0
UFO 2 (USA 95),1993-056A,2026-07-10T02:43:38.788896,1.00267981,.00028789,11.9051,3.4273,8.7218,345.4737,0,U,22787,999,11877,0,.127E-5,0
USA 99 (MILSTAR-1 1),1994-009A,2026-07-10T04:08:02.139072,0.98720187,.0001652,17.6595,27.4649,193.2484,6.0953,0,U,22988,999,3317,0,.14E-6,0
UFO 4 (USA 108),1995-003A,2026-07-10T05:52:12.605376,1.00275434,.0003134,9.6723,13.0296,93.0573,82.4385,0,U,23467,999,11518,0,-.18E-6,0
TDRS 7,1995-035B,2026-07-09T22:37:49.837152,1.00275282,.00116484,13.3676,348.0318,84.9429,283.5707,0,U,23613,999,11348,0,-.237E-5,0
USA 115 (MILSTAR-1 2),1995-060A,2026-07-10T07:43:29.778816,1.00273310,.00062186,14.0809,3.5690,123.8854,186.6379,0,U,23712,999,3311,0,-.202E-5,0
INMARSAT 3-F1,1996-020A,2026-07-10T05:06:54.889056,0.99979279,.00042971,10.6475,46.4199,82.2805,116.6431,0,U,23839,999,11048,0,.3E-6,0
INMARSAT 3-F2,1996-053A,2026-07-09T22:48:41.295744,0.99994339,.00064316,9.9068,53.7023,49.6793,293.6877,0,U,24307,999,10914,0,-.355E-5,0
INMARSAT 3-F3,1996-070A,2026-07-10T06:51:01.286784,0.99993324,.00034859,10.3668,49.4293,69.3661,291.0503,0,U,24674,999,10813,0,.69E-6,0
USA 134,1997-065A,2026-07-10T07:10:51.495168,1.00272494,.00023462,12.8104,21.5432,334.4205,287.5366,0,U,25019,999,3318,0,-.62E-6,0
INMARSAT 3-F5,1998-006B,2026-07-10T01:17:37.772160,1.00275149,.00043746,9.7415,53.0266,58.4637,141.8929,0,U,25153,999,10412,0,-.288E-5,0
ABS-6,1999-053A,2026-07-10T05:15:38.694240,1.00269332,.00031707,0.0547,269.1862,177.0668,79.7982,0,U,25924,999,9807,0,-.109E-5,0
UFO 10 (USA 146),1999-063A,2026-07-09T20:23:14.394624,1.00273499,.00013724,9.8565,27.0898,101.5818,81.9523,0,U,25967,999,9757,0,-.184E-5,0
ASIASTAR,2000-016A,2026-07-10T00:25:05.126016,1.00273751,.00037154,9.1799,57.9050,62.4532,278.8606,0,U,26107,999,9614,0,-.331E-5,0
USA 149 (DSP 20),2000-024A,2026-07-10T04:23:43.028160,1.00280183,.00015658,13.1871,11.6826,306.1999,231.3784,0,U,26356,999,3314,0,.97E-6,0
TDRS 8,2000-034A,2026-07-10T02:01:51.690720,1.00273334,.0004279,12.7188,31.1249,32.6988,339.4917,0,U,26388,999,9541,0,-.196E-5,0
NSS-11,2000-059A,2026-07-10T05:53:12.509088,1.00272514,.0002784,2.1831,81.1153,35.9460,75.4181,0,U,26554,999,4152,0,.34E-6,0
USA 153,2000-065A,2026-07-09T22:50:41.104896,1.00274116,.00021119,11.6623,35.2273,57.4052,312.3516,0,U,26575,999,3316,0,-.323E-5,0
AMC-6,2000-067A,2026-07-10T05:56:38.798592,1.00270900,.00038296,0.2080,83.5815,39.0030,119.7061,0,U,26580,999,9412,0,.99E-6,0
USA 157 (MILSTAR-2 2),2001-009A,2026-07-10T05:24:26.332992,1.00272109,.00405497,11.5670,19.6141,179.0803,20.4635,0,U,26715,999,3317,0,.111E-5,0
INTELSAT 902 (IS-902),2001-039A,2026-07-10T07:20:32.496288,1.00271554,.00044307,6.1736,71.5000,34.5835,242.1751,0,U,26900,999,9092,0,-.279E-5,0
USA 164 (MILSTAR-2 3),2002-001A,2026-07-10T05:08:24.305280,1.00275316,.00985124,11.2059,21.7598,8.9392,353.5139,0,U,27168,999,3319,0,.1E-5,0
INTELSAT 904 (IS-904),2002-007A,2026-07-10T02:02:38.744160,1.00272023,.00054695,6.9741,68.9058,22.5700,195.7302,0,U,27380,999,5199,0,-.221E-5,0
DIRECTV 5 (TEMPO 1),2002-023A,2026-07-10T07:23:33.057600,1.00271025,.00030435,4.9338,75.0208,39.1246,174.8663,0,U,27426,999,8835,0,-.51E-6,0
INTELSAT 905 (IS-905),2002-027A,2026-07-09T18:07:58.673280,1.00272621,.00036142,6.8070,69.5248,44.7572,308.2054,0,U,27438,999,5158,0,.1E-5,0
GALAXY 3C (G-3C),2002-030A,2026-07-10T06:18:41.884992,1.00270979,.00015404,3.7900,77.6765,38.2606,172.1000,0,U,27445,999,4672,0,-.146E-5,0
INTELSAT 906 (IS-906),2002-041A,2026-07-10T04:47:21.846624,1.00272124,.00039597,5.8592,72.6383,18.7055,332.7527,0,U,27513,999,8725,0,.18E-6,0
